start=new Date('2022-04-15T00:00:00.000Z').valueOf();
sats=[{"OBJECT_NAME":"STARLINK-3675","RA_OF_ASC_NODE":"319.8720","MEAN_MOTION":"15.73159998","OBJECT_ID":"2022-025H","MEAN_ANOMALY":"82.4890","NORAD_CAT_ID":"51963","INCLINATION":"53.2146","MEAN_MOTION_DDOT":"0.0000000000000","MEAN_MOTION_DOT":"-0.00016579","REF_FRAME":"TEME","GP_ID":"201260174","CENTER_NAME":"EARTH","RCS_SIZE":"LARGE","LAUNCH_DATE":"2022-03-09","FILE":"3401977","SITE":"AFETR","TLE_LINE2":"2 51963  53.2146 319.8720 0001370 133.5828  82.4890 15.73159998  3717","ARG_OF_PERICENTER":"133.5828","ELEMENT_SET_NO":"999","ECCENTRICITY":"0.00013700","PERIOD":"91.536","TIME_SYSTEM":"UTC","EPHEMERIS_TYPE":"0","DECAY_DATE":null,"PERIAPSIS":"348.952","TLE_LINE1":"1 51963U 22025H   22104.91667824 -.00016579  00000-0 -11414-3 0  9991","COUNTRY_CODE":"US","BSTAR":"-0.00011414000000","REV_AT_EPOCH":"371","OBJECT_TYPE":"PAYLOAD","EPOCH":"2022-04-14T22:00:00.999936","CLASSIFICATION_TYPE":"U","SEMIMAJOR_AXIS":"6728.009","MEAN_ELEMENT_THEORY":"SGP4","APOAPSIS":"350.796"},{"REF_FRAME":"TEME","MEAN_MOTION_DOT":"0.00049506","RCS_SIZE":"LARGE","GP_ID":"201259887","CENTER_NAME":"EARTH","LAUNCH_DATE":"2022-03-09","SITE":"AFETR","TLE_LINE2":"2 51964  53.2149 319.8631 0001221 118.3680 102.7394 15.73120772  3706","ARG_OF_PERICENTER":"118.3680","FILE":"3401977","OBJECT_NAME":"STARLINK-3690","MEAN_MOTION":"15.73120772","RA_OF_ASC_NODE":"319.8631","OBJECT_ID":"2022-025J","MEAN_ANOMALY":"102.7394","MEAN_MOTION_DDOT":"0.0000000000000","NORAD_CAT_ID":"51964","INCLINATION":"53.2149","OBJECT_TYPE":"PAYLOAD","EPOCH":"2022-04-14T22:00:00.999936","CLASSIFICATION_TYPE":"U","APOAPSIS":"350.808","MEAN_ELEMENT_THEORY":"SGP4","SEMIMAJOR_AXIS":"6728.121","ECCENTRICITY":"0.00012210","ELEMENT_SET_NO":"999","EPHEMERIS_TYPE":"0","PERIOD":"91.538","TIME_SYSTEM":"UTC","PERIAPSIS":"349.165","DECAY_DATE":null,"TLE_LINE1":"1 51964U 22025J   22104.91667824  .00049506  00000-0  35627-3 0  9998","BSTAR":"0.00035627000000","COUNTRY_CODE":"US","REV_AT_EPOCH":"370"},{"MEAN_ELEMENT_THEORY":"SGP4","APOAPSIS":"350.750","SEMIMAJOR_AXIS":"6727.900","CLASSIFICATION_TYPE":"U","OBJECT_TYPE":"PAYLOAD","EPOCH":"2022-04-14T22:00:00.999936","TLE_LINE1":"1 51965U 22025K   22104.91667824  .00027075  00000-0  19672-3 0  9998","COUNTRY_CODE":"US","REV_AT_EPOCH":"371","BSTAR":"0.00019672000000","PERIAPSIS":"348.780","DECAY_DATE":null,"EPHEMERIS_TYPE":"0","PERIOD":"91.533","TIME_SYSTEM":"UTC","ECCENTRICITY":"0.00014640","ELEMENT_SET_NO":"999","SITE":"AFETR","ARG_OF_PERICENTER":"133.8666","TLE_LINE2":"2 51965  53.2145 319.8671 0001464 133.8666  84.8429 15.73198413  3719","FILE":"3401977","LAUNCH_DATE":"2022-03-09","RCS_SIZE":"LARGE","CENTER_NAME":"EARTH","GP_ID":"201260079","REF_FRAME":"TEME","MEAN_MOTION_DOT":"0.00027075","MEAN_MOTION_DDOT":"0.0000000000000","NORAD_CAT_ID":"51965","INCLINATION":"53.2145","MEAN_ANOMALY":"84.8429","OBJECT_ID":"2022-025K","OBJECT_NAME":"STARLINK-3696","RA_OF_ASC_NODE":"319.8671","MEAN_MOTION":"15.73198413"},{"OBJECT_ID":"2022-025L","RA_OF_ASC_NODE":"319.8611","OBJECT_NAME":"STARLINK-3699","MEAN_MOTION":"15.73141235","INCLINATION":"53.2151","NORAD_CAT_ID":"51966","MEAN_MOTION_DDOT":"0.0000000000000","MEAN_ANOMALY":"102.3405","CENTER_NAME":"EARTH","GP_ID":"201234805","RCS_SIZE":"LARGE","MEAN_MOTION_DOT":"0.00007425","REF_FRAME":"TEME","FILE":"3401883","TLE_LINE2":"2 51966  53.2151 319.8611 0001287 120.0713 102.3405 15.73141235  6998","ARG_OF_PERICENTER":"120.0713","SITE":"AFETR","LAUNCH_DATE":"2022-03-09","TIME_SYSTEM":"UTC","PERIOD":"91.537","EPHEMERIS_TYPE":"0","ECCENTRICITY":"0.00012870","ELEMENT_SET_NO":"999","COUNTRY_CODE":"US","REV_AT_EPOCH":"699","BSTAR":"0.00005741600000","TLE_LINE1":"1 51966U 22025L   22104.91667824  .00007425  00000-0  57416-4 0  9995","DECAY_DATE":null,"PERIAPSIS":"349.062","EPOCH":"2022-04-14T22:00:00.999936","OBJECT_TYPE":"PAYLOAD","SEMIMAJOR_AXIS":"6728.063","MEAN_ELEMENT_THEORY":"SGP4","APOAPSIS":"350.794","CLASSIFICATION_TYPE":"U"},{"TLE_LINE1":"1 51967U 22025M   22104.91667824 -.00016521  00000-0 -11375-3 0  9998","REV_AT_EPOCH":"701","COUNTRY_CODE":"US","BSTAR":"-0.00011375000000","PERIAPSIS":"348.937","DECAY_DATE":null,"EPHEMERIS_TYPE":"0","PERIOD":"91.536","TIME_SYSTEM":"UTC","ELEMENT_SET_NO":"999","ECCENTRICITY":"0.00014210","APOAPSIS":"350.849","MEAN_ELEMENT_THEORY":"SGP4","SEMIMAJOR_AXIS":"6728.028","CLASSIFICATION_TYPE":"U","OBJECT_TYPE":"PAYLOAD","EPOCH":"2022-04-14T22:00:00.999936","MEAN_MOTION_DDOT":"0.0000000000000","NORAD_CAT_ID":"51967","INCLINATION":"53.2149","MEAN_ANOMALY":"82.3510","OBJECT_ID":"2022-025M","RA_OF_ASC_NODE":"319.8655","OBJECT_NAME":"STARLINK-3695","MEAN_MOTION":"15.73153452","SITE":"AFETR","ARG_OF_PERICENTER":"137.5008","TLE_LINE2":"2 51967  53.2149 319.8655 0001421 137.5008  82.3510 15.73153452  7016","FILE":"3401883","LAUNCH_DATE":"2022-03-09","RCS_SIZE":"LARGE","CENTER_NAME":"EARTH","GP_ID":"201234541","REF_FRAME":"TEME","MEAN_MOTION_DOT":"-0.00016521"},{"CLASSIFICATION_TYPE":"U","APOAPSIS":"350.804","MEAN_ELEMENT_THEORY":"SGP4","SEMIMAJOR_AXIS":"6728.067","OBJECT_TYPE":"PAYLOAD","EPOCH":"2022-04-14T22:00:00.999936","PERIAPSIS":"349.059","DECAY_DATE":null,"TLE_LINE1":"1 51968U 22025N   22104.91667824  .00063373  00000-0  45371-3 0  9997","BSTAR":"0.00045371000000","COUNTRY_CODE":"US","REV_AT_EPOCH":"370","ECCENTRICITY":"0.00012970","ELEMENT_SET_NO":"999","EPHEMERIS_TYPE":"0","PERIOD":"91.537","TIME_SYSTEM":"UTC","LAUNCH_DATE":"2022-03-09","SITE":"AFETR","ARG_OF_PERICENTER":"115.9279","TLE_LINE2":"2 51968  53.2154 319.8589 0001297 115.9279 107.7547 15.73139898  3702","FILE":"3401977","REF_FRAME":"TEME","MEAN_MOTION_DOT":"0.00063373","RCS_SIZE":"LARGE","CENTER_NAME":"EARTH","GP_ID":"201259538","MEAN_ANOMALY":"107.7547","MEAN_MOTION_DDOT":"0.0000000000000","NORAD_CAT_ID":"51968","INCLINATION":"53.2154","OBJECT_NAME":"STARLINK-3681","MEAN_MOTION":"15.73139898","RA_OF_ASC_NODE":"319.8589","OBJECT_ID":"2022-025N"},{"CENTER_NAME":"EARTH","GP_ID":"201259730","RCS_SIZE":"LARGE","MEAN_MOTION_DOT":"0.00066302","REF_FRAME":"TEME","FILE":"3401977","TLE_LINE2":"2 51969  53.2150 319.8644 0001437 111.8140 108.6412 15.73123671  3702","ARG_OF_PERICENTER":"111.8140","SITE":"AFETR","LAUNCH_DATE":"2022-03-09","OBJECT_ID":"2022-025P","OBJECT_NAME":"STARLINK-3680","MEAN_MOTION":"15.73123671","RA_OF_ASC_NODE":"319.8644","INCLINATION":"53.2150","NORAD_CAT_ID":"51969","MEAN_MOTION_DDOT":"0.0000000000000","MEAN_ANOMALY":"108.6412","EPOCH":"2022-04-14T22:00:00.999936","OBJECT_TYPE":"PAYLOAD","SEMIMAJOR_AXIS":"6728.113","APOAPSIS":"350.945","MEAN_ELEMENT_THEORY":"SGP4","CLASSIFICATION_TYPE":"U","TIME_SYSTEM":"UTC","PERIOD":"91.538","EPHEMERIS_TYPE":"0","ECCENTRICITY":"0.00014370","ELEMENT_SET_NO":"999","REV_AT_EPOCH":"370","COUNTRY_CODE":"US","BSTAR":"0.00047464000000","TLE_LINE1":"1 51969U 22025P   22104.91667824  .00066302  00000-0  47464-3 0  9998","DECAY_DATE":null,"PERIAPSIS":"349.011"},{"EPHEMERIS_TYPE":"0","PERIOD":"91.536","TIME_SYSTEM":"UTC","ECCENTRICITY":"0.00011700","ELEMENT_SET_NO":"999","TLE_LINE1":"1 51970U 22025Q   22104.91667824  .00006943  00000-0  53971-4 0  9996","COUNTRY_CODE":"US","REV_AT_EPOCH":"370","BSTAR":"0.00005397100000","PERIAPSIS":"349.135","DECAY_DATE":null,"OBJECT_TYPE":"PAYLOAD","EPOCH":"2022-04-14T22:00:00.999936","APOAPSIS":"350.709","MEAN_ELEMENT_THEORY":"SGP4","SEMIMAJOR_AXIS":"6728.057","CLASSIFICATION_TYPE":"U","OBJECT_ID":"2022-025Q","OBJECT_NAME":"STARLINK-3677","MEAN_MOTION":"15.73143133","RA_OF_ASC_NODE":"319.8568","MEAN_MOTION_DDOT":"0.0000000000000","NORAD_CAT_ID":"51970","INCLINATION":"53.2154","MEAN_ANOMALY":"119.6421","RCS_SIZE":"LARGE","CENTER_NAME":"EARTH","GP_ID":"201259983","REF_FRAME":"TEME","MEAN_MOTION_DOT":"0.00006943","SITE":"AFETR","ARG_OF_PERICENTER":"105.3737","TLE_LINE2":"2 51970  53.2154 319.8568 0001170 105.3737 119.6421 15.73143133  3704","FILE":"3401977","LAUNCH_DATE":"2022-03-09"},{"MEAN_ANOMALY":"98.0116","INCLINATION":"53.2149","NORAD_CAT_ID":"51971","MEAN_MOTION_DDOT":"0.0000000000000","MEAN_MOTION":"15.73141721","OBJECT_NAME":"STARLINK-3669","RA_OF_ASC_NODE":"319.8621","OBJECT_ID":"2022-025R","LAUNCH_DATE":"2022-03-09","FILE":"3401875","TLE_LINE2":"2 51971  53.2149 319.8621 0001431 123.7745  98.0116 15.73141721  7012","ARG_OF_PERICENTER":"123.7745","SITE":"AFETR","MEAN_MOTION_DOT":"0.00041775","REF_FRAME":"TEME","GP_ID":"201234571","CENTER_NAME":"EARTH","RCS_SIZE":"LARGE","DECAY_DATE":null,"PERIAPSIS":"348.964","BSTAR":"0.00030133000000","COUNTRY_CODE":"US","REV_AT_EPOCH":"701","TLE_LINE1":"1 51971U 22025R   22104.91667824  .00041775  00000-0  30133-3 0  9993","ECCENTRICITY":"0.00014310","ELEMENT_SET_NO":"999","TIME_SYSTEM":"UTC","PERIOD":"91.537","EPHEMERIS_TYPE":"0","CLASSIFICATION_TYPE":"U","SEMIMAJOR_AXIS":"6728.061","APOAPSIS":"350.889","MEAN_ELEMENT_THEORY":"SGP4","EPOCH":"2022-04-14T22:00:00.999936","OBJECT_TYPE":"PAYLOAD"},{"MEAN_ELEMENT_THEORY":"SGP4","APOAPSIS":"350.749","SEMIMAJOR_AXIS":"6728.070","CLASSIFICATION_TYPE":"U","EPOCH":"2022-04-14T22:00:00.999936","OBJECT_TYPE":"PAYLOAD","REV_AT_EPOCH":"700","COUNTRY_CODE":"US","BSTAR":"0.00029053000000","TLE_LINE1":"1 51972U 22025S   22104.91667824  .00040242  00000-0  29053-3 0  9991","PERIAPSIS":"349.121","DECAY_DATE":null,"EPHEMERIS_TYPE":"0","TIME_SYSTEM":"UTC","PERIOD":"91.537","ECCENTRICITY":"0.00012100","ELEMENT_SET_NO":"999","TLE_LINE2":"2 51972  53.2157 319.8546 0001210 118.5874 107.6905 15.73138604  7006","ARG_OF_PERICENTER":"118.5874","SITE":"AFETR","FILE":"3401875","LAUNCH_DATE":"2022-03-09","RCS_SIZE":"LARGE","GP_ID":"201234846","CENTER_NAME":"EARTH","REF_FRAME":"TEME","MEAN_MOTION_DOT":"0.00040242","MEAN_MOTION_DDOT":"0.0000000000000","INCLINATION":"53.2157","NORAD_CAT_ID":"51972","MEAN_ANOMALY":"107.6905","OBJECT_ID":"2022-025S","RA_OF_ASC_NODE":"319.8546","OBJECT_NAME":"STARLINK-3671","MEAN_MOTION":"15.73138604"}];
